{"type":"FeatureCollection", "features": [
{"type":"Feature","geometry":{"type":"Polygon","coordinates":[[[121.8732065,46.2357062],[121.9624696,46.1469024],[121.9929367,46.0813177],[122.1460848,46.0007712],[122.0848009,45.8801279],[122.2112479,45.8416454],[122.2532917,45.7922737],[122.3447204,45.8608378],[122.3552919,45.9143637],[122.4399555,45.9151254],[122.5605504,45.8048767],[122.6359826,45.7697336],[122.6653113,45.6987533],[122.735838,45.7034688],[122.7865677,45.7676508],[122.7474108,45.8304186],[122.8207416,45.9117037],[122.7745318,46.1714278],[122.6068199,46.1543028],[122.6086769,46.1899551],[122.4875614,46.2114041],[122.3286851,46.2066494],[122.2515239,46.1703017],[122.0710994,46.2545162],[121.9322698,46.2957523],[121.8732065,46.2357062]]]},"properties":{"place_id":218294596,"osm_type":"relation","osm_id":2753441,"place_rank":12,"category":"boundary","type":"administrative","importance":0.45803640632205495,"addresstype":"city","name":"乌兰浩特市 ᠤᠯᠠᠭᠠᠨᠬᠣᠲᠠ","display_name":"乌兰浩特市 ᠤᠯᠠᠭᠠᠨᠬᠣᠲᠠ, 兴安盟 ᠬᠢᠩᠭ᠋ᠠᠨ ᠠᠶᠢᠮᠠᠭ, 内蒙古自治区 ᠦᠪᠦᠷ ᠮᠣᠩᠭᠤᠯ ᠤᠨ ᠥᠪᠡᠷᠲᠡᠭᠡᠨ ᠵᠠᠰᠠᠬᠣ ᠣᠷᠣᠨ, 中国","address":{"city":"乌兰浩特市 ᠤᠯᠠᠭᠠᠨᠬᠣᠲᠠ","region":"兴安盟 ᠬᠢᠩᠭ᠋ᠠᠨ ᠠᠶᠢᠮᠠᠭ","state":"内蒙古自治区 ᠦᠪᠦᠷ ᠮᠣᠩᠭᠤᠯ ᠤᠨ ᠥᠪᠡᠷᠲᠡᠭᠡᠨ ᠵᠠᠰᠠᠬᠣ ᠣᠷᠣᠨ","ISO3166-2-lvl4":"CN-NM","country":"中国","country_code":"cn"}}},
{"type":"Feature","geometry":{"type":"Polygon","coordinates":[[[119.4743753,47.3268745],[119.5538859,47.3005289],[119.708097,47.193368],[119.799045,47.059188],[119.78342,47.024536],[119.8551185,46.920389],[119.9212936,46.9026261],[120.0376274,46.9238664],[120.0826568,46.8380291],[120.2463527,46.7727262],[120.3824414,46.7494196],[120.5620585,46.6605564],[120.8536237,46.6928248],[120.8172249,46.7398198],[120.8322347,46.8217058],[120.7641904,46.8655099],[120.8777644,46.9502786],[120.9002791,47.0001201],[120.9863352,47.0301391],[121.094906,46.9922714],[121.2179033,46.9196929],[121.3070443,46.9714498],[121.3339645,47.1069715],[121.2395182,47.1098911],[121.0679005,47.148127],[120.9431911,47.0971454],[120.8648298,47.1464204],[120.8009867,47.1477901],[120.7262652,47.2150497],[120.5849383,47.2374695],[120.5788735,47.2740816],[120.6972723,47.3320651],[120.7230767,47.390999],[120.6443873,47.438446],[120.5282357,47.5419416],[120.3171239,47.6057824],[120.2181319,47.6231722],[120.1119151,47.6001826],[119.9556894,47.5223683],[119.83464,47.4980363],[119.7834096,47.4478611],[119.6454626,47.4079808],[119.5800964,47.3403826],[119.4743753,47.3268745]]]},"properties":{"place_id":218304433,"osm_type":"relation","osm_id":2753436,"place_rank":12,"category":"boundary","type":"administrative","importance":0.5001349749767685,"addresstype":"district","name":"阿尔山市 ᠷᠠᠰᠢᠶᠠᠨ ᠬᠣᠲᠠ","display_name":"阿尔山市 ᠷᠠᠰᠢᠶᠠᠨ ᠬᠣᠲᠠ, 兴安盟 ᠬᠢᠩᠭ᠋ᠠᠨ ᠠᠶᠢᠮᠠᠭ, 内蒙古自治区 ᠦᠪᠦᠷ ᠮᠣᠩᠭᠤᠯ ᠤᠨ ᠥᠪᠡᠷᠲᠡᠭᠡᠨ ᠵᠠᠰᠠᠬᠣ ᠣᠷᠣᠨ, 中国","address":{"district":"阿尔山市 ᠷᠠᠰᠢᠶᠠᠨ ᠬᠣᠲᠠ","region":"兴安盟 ᠬᠢᠩᠭ᠋ᠠᠨ ᠠᠶᠢᠮᠠᠭ","state":"内蒙古自治区 ᠦᠪᠦᠷ ᠮᠣᠩᠭᠤᠯ ᠤᠨ ᠥᠪᠡᠷᠲᠡᠭᠡᠨ ᠵᠠᠰᠠᠬᠣ ᠣᠷᠣᠨ","ISO3166-2-lvl4":"CN-NM","country":"中国","country_code":"cn"}}},
{"type":"Feature","geometry":{"type":"Polygon","coordinates":[[[117.2106948,49.5231527],[117.4403727,49.5250791],[117.4936345,49.499917],[117.5937978,49.5186968],[117.7573437,49.471458],[117.7224065,49.3729813],[117.7819229,49.3281615],[117.8932919,49.4497063],[117.7934272,49.5200369],[117.6338868,49.5647835],[117.4713427,49.6271628],[117.2732686,49.6308469],[117.2106948,49.5231527]]]},"properties":{"place_id":218215634,"osm_type":"relation","osm_id":161724,"place_rank":12,"category":"boundary","type":"administrative","importance":0.5005757783130559,"addresstype":"city","name":"满洲里市 ᠮᠠᠨᠵᠤᠤᠷ ᠬᠣᠲᠠ","display_name":"满洲里市 ᠮᠠᠨᠵᠤᠤᠷ ᠬᠣᠲᠠ, 呼伦贝尔市 ᠬᠥᠯᠥᠨ ᠪᠤᠶᠢᠷ, 内蒙古自治区 ᠦᠪᠦᠷ ᠮᠣᠩᠭᠤᠯ ᠤᠨ ᠥᠪᠡᠷᠲᠡᠭᠡᠨ ᠵᠠᠰᠠᠬᠣ ᠣᠷᠣᠨ, 中国","address":{"city":"满洲里市 ᠮᠠᠨᠵᠤᠤᠷ ᠬᠣᠲᠠ","state":"内蒙古自治区 ᠦᠪᠦᠷ ᠮᠣᠩᠭᠤᠯ ᠤᠨ ᠥᠪᠡᠷᠲᠡᠭᠡᠨ ᠵᠠᠰᠠᠬᠣ ᠣᠷᠣᠨ","ISO3166-2-lvl4":"CN-NM","country":"中国","country_code":"cn"}}},
{"type":"Feature","geometry":{"type":"Polygon","coordinates":[[[119.1814992,50.4223929],[119.1667363,50.3790628],[119.3508236,50.3576431],[119.3438924,50.2842898],[119.31976663591645,50.281374200602535],[119.3330942,50.2755141],[119.3191554,50.1628137],[119.33907899613722,50.16347109027748],[119.3856503,50.1399579],[119.4742357,50.1170549],[119.56415205643609,50.130517781772525],[119.57906013612944,50.13538041884336],[119.6203237,50.169263],[119.682984,50.1957329],[119.72485872622349,50.19456245189713],[119.8102806,50.1661064],[119.9059131,50.0298107],[120.1021932,49.9771616],[120.5726173,50.0331029],[120.7428961,50.0731314],[120.7531978,50.1065139],[120.9425575,50.057125],[121.009147,50.108948],[120.9582835,50.2330811],[120.9832378,50.2787277],[120.9019091,50.3668368],[120.8000277,50.4302324],[120.6875144,50.432332],[120.7549983,50.5201519],[120.6692276,50.6071853],[120.5323404,50.5706644],[120.454239,50.717263],[120.5718538,50.8042553],[120.4360424,50.8587882],[120.3551946,50.8340413],[120.2378989,50.8342601],[120.2103965,50.8701702],[120.2965843,51.003413],[120.3990246,51.0583106],[120.4297497,51.1184729],[120.4713507,51.1518395],[120.5835047,51.1656032],[120.6554183,51.1484868],[120.7232066,51.0869479],[120.9323811,51.0544748],[121.0106649,51.1135454],[121.0092313,51.182895],[121.0875082,51.3066748],[121.1896659,51.3217627],[121.3154377,51.3933184],[121.3677439,51.4548802],[121.4480287,51.4868747],[121.4117061,51.5295378],[121.4271382,51.6623271],[121.47364618223675,51.660655904633614],[121.48277409825722,51.67124538985276],[121.48764974605655,51.67690173026922],[121.5369788,51.6969563],[121.5660788,51.7758189],[121.60889120232416,51.8158130772385],[121.61070598282262,51.82114070527179],[121.60388419283456,51.829967700817896],[121.5394326,51.8551776],[121.4475733,51.9105134],[121.3191916,51.9043683],[121.340773,51.9797578],[121.438166,52.0247264],[121.5770618,52.0522984],[121.75274,52.1331373],[121.743606182931,52.14787439770525],[121.705375,52.160243],[121.69196933417324,52.17913299989084],[121.6907336205329,52.190849575154516],[121.6916113,52.2583234],[121.7127528,52.3140701],[121.7128195561026,52.33507096300319],[121.6884824,52.3695481],[121.6575186,52.387317],[121.67320921114684,52.418311928986526],[121.67266960208772,52.418910325936274],[121.6479479,52.4318737],[121.64087487835378,52.443549347751485],[121.5835437,52.4408551],[121.4103347,52.4976135],[121.3152943,52.5717514],[121.2219137,52.5731709],[121.18547017585422,52.593861597312305],[121.18477902997452,52.59499596974245],[121.2821648,52.6481472],[121.4451663,52.7309314],[121.5798124,52.8195655],[121.6016418,52.8911596],[121.65460330250967,52.91106130881571],[121.6697428,52.928996],[121.7059615,52.987793],[121.7787024,53.0172331],[121.80413902939961,53.05307595476365],[121.80815359534591,53.05873289546487],[121.80919288211655,53.064716473266884],[121.7680729,53.0878105],[121.7764394,53.117004],[121.6525881,53.1733811],[121.6718489,53.2387773],[121.6071367,53.2593801],[121.56657565714335,53.29454965785092],[121.54505056829058,53.29335903424334],[121.4931993,53.3340564],[121.37021124380826,53.320066108390854],[121.33487990300807,53.32262445085775],[121.32456140985653,53.32095274793221],[121.2989919,53.2987925],[121.2760426,53.2888334],[121.24858734810752,53.29012850476099],[121.2265357,53.279163],[121.0874565,53.3053061],[120.8986994,53.2851979],[120.87781373830907,53.2918081126309],[120.8750947,53.2820878],[120.684644,53.1751485],[120.6360335,53.1039235],[120.5552591,53.0804569],[120.4369382,53.0023997],[120.2808237,52.8609827],[120.1374306,52.812691],[120.09362741352761,52.788110716322024],[120.08951304531453,52.78580192680287],[120.02931886450172,52.77659596844605],[120.02696586851366,52.77244369070283],[120.02784749391752,52.76201117299454],[120.0618436,52.7072149],[120.0267672,52.6354566],[120.0619671,52.5860533],[120.1846108,52.5770372],[120.2820189,52.6221078],[120.3909082,52.6152463],[120.4589993,52.6434643],[120.681249,52.5465517],[120.71259493348349,52.548360360469516],[120.72079563636919,52.54464666675952],[120.72229675301551,52.54335567026248],[120.7226475,52.5299249],[120.6804342,52.5105337],[120.6835667,52.4289413],[120.6431434,52.3624144],[120.61645755900565,52.35815602010557],[120.61545378052477,52.356064793907606],[120.6174396204165,52.34552083613483],[120.62845704183025,52.318457772471575],[120.6396485290629,52.308644344756054],[120.6927596,52.2869761],[120.7108234,52.2589152],[120.74860364427117,52.25566723571537],[120.7560422,52.2467257],[120.75444420462945,52.135855615249696],[120.760918,52.1084649],[120.7348049,52.0925448],[120.74494327453898,52.079281053532796],[120.74453431947097,52.07817151648016],[120.7191265,52.0773708],[120.68117092618782,52.03829891367922],[120.68056294944189,52.03489420050868],[120.69117269731225,52.02551161927534],[120.7118393,52.0072354],[120.6503978,51.9253927],[120.3939926,51.8319979],[120.3558323,51.7874061],[120.1665899,51.6788548],[120.0569326,51.6373197],[120.044391,51.5512707],[119.9780937,51.504339],[119.9953628,51.4535563],[119.9395708,51.3608422],[119.7524792,51.2126993],[119.7812735,51.1720298],[119.7175649,51.0480669],[119.5834106,50.9752041],[119.4840187,50.8782564],[119.4917345,50.7462291],[119.35527292128248,50.63491614411099],[119.34572828016294,50.62912245816825],[119.34327587031905,50.628807483074496],[119.3282168,50.6407366],[119.2742485,50.6034177],[119.2438123,50.448197],[119.23480888984312,50.44112253365515],[119.2154587,50.4403128],[119.204231,50.4229096],[119.20576667354499,50.4106014130499],[119.20360805961876,50.41045697227339],[119.1814992,50.4223929]]]},"properties":{"place_id":218206043,"osm_type":"relation","osm_id":161784,"place_rank":12,"category":"boundary","type":"administrative","importance":0.46541543191826146,"addresstype":"district","name":"额尔古纳市","display_name":"额尔古纳市, 呼伦贝尔市 ᠬᠥᠯᠥᠨ ᠪᠤᠶᠢᠷ, 内蒙古自治区 ᠦᠪᠦᠷ ᠮᠣᠩᠭᠤᠯ ᠤᠨ ᠥᠪᠡᠷᠲᠡᠭᠡᠨ ᠵᠠᠰᠠᠬᠣ ᠣᠷᠣᠨ, 中国","address":{"district":"额尔古纳市","city":"呼伦贝尔市 ᠬᠥᠯᠥᠨ ᠪᠤᠶᠢᠷ","state":"内蒙古自治区 ᠦᠪᠦᠷ ᠮᠣᠩᠭᠤᠯ ᠤᠨ ᠥᠪᠡᠷᠲᠡᠭᠡᠨ ᠵᠠᠰᠠᠬᠣ ᠣᠷᠣᠨ","ISO3166-2-lvl4":"CN-NM","country":"中国","country_code":"cn"}}},
{"type":"Feature","geometry":{"type":"Polygon","coordinates":[[[119.5949814,49.123333],[119.6924256,49.1803068],[119.8006663,49.0956209],[119.9640348,49.1594081],[120.0927596,49.1426358],[120.1724059,49.1664041],[120.3566624,49.1725109],[120.5477118,49.2479515],[120.5193335,49.288306],[120.3803771,49.23267],[120.3508267,49.318569],[120.2864548,49.3476249],[120.171037,49.2637208],[120.1153047,49.3481045],[119.9978436,49.4595869],[119.8709019,49.4902891],[119.8291845,49.3570705],[119.7865167,49.2930532],[119.6507351,49.244144],[119.5949814,49.123333]]]},"properties":{"place_id":218161180,"osm_type":"relation","osm_id":161676,"place_rank":12,"category":"boundary","type":"administrative","importance":0.46584347614888416,"addresstype":"city","name":"海拉尔区 ᠬᠠᠶᠢᠯᠠᠷ","display_name":"海拉尔区 ᠬᠠᠶᠢᠯᠠᠷ, 呼伦贝尔市 ᠬᠥᠯᠥᠨ ᠪᠤᠶᠢᠷ, 内蒙古自治区 ᠦᠪᠦᠷ ᠮᠣᠩᠭᠤᠯ ᠤᠨ ᠥᠪᠡᠷᠲᠡᠭᠡᠨ ᠵᠠᠰᠠᠬᠣ ᠣᠷᠣᠨ, 021000, 中国","address":{"city":"海拉尔区 ᠬᠠᠶᠢᠯᠠᠷ","state":"内蒙古自治区 ᠦᠪᠦᠷ ᠮᠣᠩᠭᠤᠯ ᠤᠨ ᠥᠪᠡᠷᠲᠡᠭᠡᠨ ᠵᠠᠰᠠᠬᠣ ᠣᠷᠣᠨ","ISO3166-2-lvl4":"CN-NM","postcode":"021000","country":"中国","country_code":"cn"}}},
{"type":"Feature","geometry":{"type":"Polygon","coordinates":[[[119.1814992,50.4223929],[119.1667363,50.3790628],[119.3508236,50.3576431],[119.3438924,50.2842898],[119.31976663591645,50.281374200602535],[119.3330942,50.2755141],[119.3191554,50.1628137],[119.33907899613722,50.16347109027748],[119.3856503,50.1399579],[119.4742357,50.1170549],[119.56415205643609,50.130517781772525],[119.57906013612944,50.13538041884336],[119.6203237,50.169263],[119.682984,50.1957329],[119.72485872622349,50.19456245189713],[119.6211089,50.2524104],[119.5316095,50.2443227],[119.4487465,50.366045],[119.4895569,50.4503277],[119.4167827,50.6110594],[119.35527292128248,50.63491614411099],[119.34572828016294,50.62912245816825],[119.34327587031905,50.628807483074496],[119.3282168,50.6407366],[119.2742485,50.6034177],[119.2438123,50.448197],[119.23480888984312,50.44112253365515],[119.2154587,50.4403128],[119.204231,50.4229096],[119.20576667354499,50.4106014130499],[119.20360805961876,50.41045697227339],[119.1814992,50.4223929]]]},"properties":{"place_id":218145344,"osm_type":"relation","osm_id":10591446,"place_rank":16,"category":"boundary","type":"administrative","importance":0.22697289548003588,"addresstype":"town","name":"黑山头镇","display_name":"黑山头镇, 额尔古纳市, 呼伦贝尔市 ᠬᠥᠯᠥᠨ ᠪᠤᠶᠢᠷ, 内蒙古自治区 ᠦᠪᠦᠷ ᠮᠣᠩᠭᠤᠯ ᠤᠨ ᠥᠪᠡᠷᠲᠡᠭᠡᠨ ᠵᠠᠰᠠᠬᠣ ᠣᠷᠣᠨ, 中国","address":{"town":"黑山头镇","district":"额尔古纳市","city":"呼伦贝尔市 ᠬᠥᠯᠥᠨ ᠪᠤᠶᠢᠷ","state":"内蒙古自治区 ᠦᠪᠦᠷ ᠮᠣᠩᠭᠤᠯ ᠤᠨ ᠥᠪᠡᠷᠲᠡᠭᠡᠨ ᠵᠠᠰᠠᠬᠣ ᠣᠷᠣᠨ","ISO3166-2-lvl4":"CN-NM","country":"中国","country_code":"cn"}}},
{"type":"Feature","geometry":{"type":"Polygon","coordinates":[[[120.1374306,52.812691],[120.09362741352761,52.788110716322024],[120.08951304531453,52.78580192680287],[120.02931886450172,52.77659596844605],[120.02696586851366,52.77244369070283],[120.02784749391752,52.76201117299454],[120.0618436,52.7072149],[120.0267672,52.6354566],[120.0619671,52.5860533],[120.1846108,52.5770372],[120.2820189,52.6221078],[120.3909082,52.6152463],[120.4589993,52.6434643],[120.681249,52.5465517],[120.71259493348349,52.548360360469516],[120.72079563636919,52.54464666675952],[120.72229675301551,52.54335567026248],[120.7226475,52.5299249],[120.6804342,52.5105337],[120.6835667,52.4289413],[120.6431434,52.3624144],[120.61645755900565,52.35815602010557],[120.61545378052477,52.356064793907606],[120.6174396204165,52.34552083613483],[120.62845704183025,52.318457772471575],[120.6396485290629,52.308644344756054],[120.6927596,52.2869761],[120.7108234,52.2589152],[120.74860364427117,52.25566723571537],[120.7560422,52.2467257],[120.8927242,52.2392064],[120.9202241,52.1722924],[120.75444420462945,52.135855615249696],[120.760918,52.1084649],[120.7348049,52.0925448],[120.74494327453898,52.079281053532796],[120.74453431947097,52.07817151648016],[120.7191265,52.0773708],[120.68117092618782,52.03829891367922],[120.68056294944189,52.03489420050868],[120.69117269731225,52.02551161927534],[120.7118393,52.0072354],[120.6503978,51.9253927],[120.3939926,51.8319979],[120.3558323,51.7874061],[120.1665899,51.6788548],[120.0569326,51.6373197],[120.1602939,51.5651532],[120.142547,51.5027071],[120.2075645,51.3403925],[120.1610826,51.2365166],[120.1629556,51.1709642],[120.215347,51.118291],[120.3229708,51.1558296],[120.4297497,51.1184729],[120.4713507,51.1518395],[120.5835047,51.1656032],[120.6554183,51.1484868],[120.7232066,51.0869479],[120.9323811,51.0544748],[121.0106649,51.1135454],[121.0092313,51.182895],[121.0875082,51.3066748],[121.1896659,51.3217627],[121.3154377,51.3933184],[121.3677439,51.4548802],[121.4480287,51.4868747],[121.4117061,51.5295378],[121.4271382,51.6623271],[121.47364618223675,51.660655904633614],[121.48277409825722,51.67124538985276],[121.48764974605655,51.67690173026922],[121.5369788,51.6969563],[121.5660788,51.7758189],[121.60889120232416,51.8158130772385],[121.61070598282262,51.82114070527179],[121.60388419283456,51.829967700817896],[121.5394326,51.8551776],[121.4475733,51.9105134],[121.3191916,51.9043683],[121.340773,51.9797578],[121.438166,52.0247264],[121.5770618,52.0522984],[121.75274,52.1331373],[121.743606182931,52.14787439770525],[121.705375,52.160243],[121.69196933417324,52.17913299989084],[121.6907336205329,52.190849575154516],[121.6916113,52.2583234],[121.7127528,52.3140701],[121.7128195561026,52.33507096300319],[121.6884824,52.3695481],[121.6575186,52.387317],[121.67320921114684,52.418311928986526],[121.67266960208772,52.418910325936274],[121.6479479,52.4318737],[121.64087487835378,52.443549347751485],[121.5835437,52.4408551],[121.4103347,52.4976135],[121.3152943,52.5717514],[121.2219137,52.5731709],[121.18547017585422,52.593861597312305],[121.18477902997452,52.59499596974245],[121.2821648,52.6481472],[121.4451663,52.7309314],[121.5798124,52.8195655],[121.6016418,52.8911596],[121.65460330250967,52.91106130881571],[121.6697428,52.928996],[121.7059615,52.987793],[121.7787024,53.0172331],[121.80413902939961,53.05307595476365],[121.80815359534591,53.05873289546487],[121.80919288211655,53.064716473266884],[121.7680729,53.0878105],[121.7764394,53.117004],[121.6525881,53.1733811],[121.6718489,53.2387773],[121.6071367,53.2593801],[121.56657565714335,53.29454965785092],[121.54505056829058,53.29335903424334],[121.3827623,53.278039],[121.37021124380826,53.320066108390854],[121.33487990300807,53.32262445085775],[121.32456140985653,53.32095274793221],[121.2989919,53.2987925],[121.2760426,53.2888334],[121.24858734810752,53.29012850476099],[121.2265357,53.279163],[121.0874565,53.3053061],[120.8986994,53.2851979],[120.87781373830907,53.2918081126309],[120.8750947,53.2820878],[120.684644,53.1751485],[120.6360335,53.1039235],[120.5552591,53.0804569],[120.4369382,53.0023997],[120.2808237,52.8609827],[120.1374306,52.812691]]]},"properties":{"place_id":218122839,"osm_type":"relation","osm_id":10591450,"place_rank":16,"category":"boundary","type":"administrative","importance":0.244781979759108,"addresstype":"town","name":"莫尔道嘎镇","display_name":"莫尔道嘎镇, 额尔古纳市, 呼伦贝尔市 ᠬᠥᠯᠥᠨ ᠪᠤᠶᠢᠷ, 内蒙古自治区 ᠦᠪᠦᠷ ᠮᠣᠩᠭᠤᠯ ᠤᠨ ᠥᠪᠡᠷᠲᠡᠭᠡᠨ ᠵᠠᠰᠠᠬᠣ ᠣᠷᠣᠨ, 中国","address":{"town":"莫尔道嘎镇","district":"额尔古纳市","city":"呼伦贝尔市 ᠬᠥᠯᠥᠨ ᠪᠤᠶᠢᠷ","state":"内蒙古自治区 ᠦᠪᠦᠷ ᠮᠣᠩᠭᠤᠯ ᠤᠨ ᠥᠪᠡᠷᠲᠡᠭᠡᠨ ᠵᠠᠰᠠᠬᠣ ᠣᠷᠣᠨ","ISO3166-2-lvl4":"CN-NM","country":"中国","country_code":"cn"}}}
]}