{"type":"FeatureCollection", "features": [
{"type":"Feature","geometry":{"type":"MultiLineString","coordinates":[[[116.684278,49.823265],[116.247767,49.181469],[116.037806,48.870145],[116.028194,48.767464],[115.800404,48.530372],[115.786555,48.473011],[115.809292,48.273954],[115.770845,48.224086],[115.536441,48.149155],[115.51453,48.122103],[115.561866,47.933199],[115.5999,47.887414],[115.852701,47.705565],[115.914506,47.683912]],[[118.182481,48.028206],[118.280046,47.998131],[118.472799,47.989449],[118.542252,47.966246],[118.767406,47.756156],[119.08346,47.661562],[119.157564,47.517669],[119.310112,47.476095],[119.320654,47.40703],[119.699959,47.159526],[119.753961,47.094439],[119.770136,46.992998],[119.902893,46.842413],[119.904185,46.708933],[119.834421,46.650952]],[[117.972778,47.997898],[118.182481,48.028206]],[[117.815165,48.004823],[117.972778,47.997898]],[[117.360826,47.650865],[117.741681,47.977589],[117.815165,48.004823]],[[116.822047,47.876304],[117.069681,47.810158],[117.317107,47.654069],[117.360826,47.650865]],[[116.428893,47.835143],[116.822047,47.876304]],[[116.243891,47.862894],[116.428893,47.835143]],[[115.914506,47.683912],[116.084314,47.806928],[116.243891,47.862894]],[[118.907088,46.709398],[118.846523,46.765493]],[[118.846523,46.765493],[118.720071,46.676739]],[[119.316934,46.611678],[119.062376,46.660951],[118.967239,46.740456]],[[118.967239,46.740456],[118.907088,46.709398]],[[118.472799,46.685679],[118.30082,46.724849]],[[118.30082,46.724849],[117.878313,46.596382],[117.797595,46.520262],[117.696206,46.512253]],[[118.720071,46.676739],[118.60938,46.705781]],[[118.60938,46.705781],[118.472799,46.685679]],[[119.834421,46.650952],[119.796284,46.658833]],[[119.796284,46.658833],[119.680116,46.591628]],[[119.575884,46.619171],[119.501263,46.628008]],[[119.501263,46.628008],[119.316934,46.611678]],[[119.680116,46.591628],[119.602188,46.619688]],[[119.602188,46.619688],[119.575884,46.619171]],[[117.696206,46.512253],[117.568151,46.603539]],[[117.568151,46.603539],[117.501799,46.577261]],[[117.501799,46.577261],[117.47286,46.584677]],[[117.47286,46.584677],[117.405474,46.510806],[117.353074,46.379496],[117.301708,46.350144]],[[117.301708,46.350144],[116.957853,46.366422],[116.814606,46.38673]],[[116.814606,46.38673],[116.722002,46.328698],[116.603559,46.309319],[116.525114,46.226792],[116.357166,46.105559],[116.213195,45.908155],[116.251643,45.803252],[116.169891,45.709097],[116.063334,45.673337]],[[116.063334,45.673337],[116.011967,45.678557]],[[116.011967,45.678557],[115.63783,45.444359],[115.33728,45.394698],[115,45.38051059810009]]]},"properties":{"FEATURECLA":"International boundary (verify)","NAME":null,"COMMENT":null,"ADM0_USA":1,"ADM0_LEFT":"China","ADM0_RIGHT":"Mongolia","ADM0_A3_L":"CHN","ADM0_A3_R":"MNG","SOV_A3_L":"CH1","SOV_A3_R":"MNG","TYPE":"Land","LABELRANK":2,"SCALERANK":1,"MIN_ZOOM":0,"MIN_LABEL":7.6,"NOTE":null,"ADM0_ABR_L":"China","ADM0_ABR_R":"Mong.","FCLASS_ISO":null,"FCLASS_US":null,"FCLASS_FR":null,"FCLASS_RU":null,"FCLASS_ES":null,"FCLASS_CN":null,"FCLASS_TW":"Indefinite (please verify)","FCLASS_IN":null,"FCLASS_NP":null,"FCLASS_PK":null,"FCLASS_DE":null,"FCLASS_GB":null,"FCLASS_BR":null,"FCLASS_IL":null,"FCLASS_PS":null,"FCLASS_SA":null,"FCLASS_EG":null,"FCLASS_MA":null,"FCLASS_PT":null,"FCLASS_AR":null,"FCLASS_JP":null,"FCLASS_KO":null,"FCLASS_VN":null,"FCLASS_TR":null,"FCLASS_ID":null,"FCLASS_PL":null,"FCLASS_GR":null,"FCLASS_IT":null,"FCLASS_NL":null,"FCLASS_SE":null,"FCLASS_BD":null,"FCLASS_UA":null,"ne_id":1746705433,"BRK_A3":null,"FCLASS_OSM":null,"FCLASS_TLC":null}},
{"type":"Feature","geometry":{"type":"MultiLineString","coordinates":[[[115.387819,49.891064],[115.210156,49.97168],[115,50.14263186666667]],[[116.684278,49.823265],[116.575447,49.92176],[116.21764,50.013848],[116.135371,50.014416]],[[116.135371,50.014416],[116.053619,49.998448],[115.750898,49.884967],[115.683409,49.87768]],[[115.683409,49.87768],[115.578195,49.893648]],[[115.578195,49.893648],[115.508536,49.886775]],[[115.508536,49.886775],[115.450141,49.891426]],[[115.450141,49.891426],[115.387819,49.891064]]]},"properties":{"FEATURECLA":"International boundary (verify)","NAME":null,"COMMENT":null,"ADM0_USA":1,"ADM0_LEFT":"Mongolia","ADM0_RIGHT":"Russia","ADM0_A3_L":"MNG","ADM0_A3_R":"RUS","SOV_A3_L":"MNG","SOV_A3_R":"RUS","TYPE":"Land","LABELRANK":2,"SCALERANK":1,"MIN_ZOOM":0,"MIN_LABEL":7.6,"NOTE":null,"ADM0_ABR_L":"Mong.","ADM0_ABR_R":"Rus.","FCLASS_ISO":null,"FCLASS_US":null,"FCLASS_FR":null,"FCLASS_RU":null,"FCLASS_ES":null,"FCLASS_CN":null,"FCLASS_TW":null,"FCLASS_IN":null,"FCLASS_NP":null,"FCLASS_PK":null,"FCLASS_DE":null,"FCLASS_GB":null,"FCLASS_BR":null,"FCLASS_IL":null,"FCLASS_PS":null,"FCLASS_SA":null,"FCLASS_EG":null,"FCLASS_MA":null,"FCLASS_PT":null,"FCLASS_AR":null,"FCLASS_JP":null,"FCLASS_KO":null,"FCLASS_VN":null,"FCLASS_TR":null,"FCLASS_ID":null,"FCLASS_PL":null,"FCLASS_GR":null,"FCLASS_IT":null,"FCLASS_NL":null,"FCLASS_SE":null,"FCLASS_BD":null,"FCLASS_UA":null,"ne_id":1746707241,"BRK_A3":null,"FCLASS_OSM":null,"FCLASS_TLC":null}},
{"type":"Feature","geometry":{"type":"MultiLineString","coordinates":[[[123.277312,53.569444],[123.481537,53.518078]],[[122.401603,53.45095],[122.471211,53.464748],[122.859663,53.473946],[123.002548,53.507329],[123.153599,53.513117],[123.277312,53.569444]],[[123.614294,53.563347],[123.732168,53.503764],[123.850197,53.494979],[124,53.427956887873876]],[[123.541895,53.514099],[123.614294,53.563347]],[[123.514404,53.562416],[123.541895,53.514099]],[[123.481537,53.518078],[123.514404,53.562416]],[[122.316751,53.496012],[122.401603,53.45095]],[[122.081623,53.429505],[122.316751,53.496012]],[[121.888973,53.43059],[122.081623,53.429505]],[[121.405798,53.316824],[121.512148,53.329821],[121.64103,53.384908],[121.888973,53.43059]],[[121.357636,53.324059],[121.405798,53.316824]],[[121.151809,53.274501],[121.357636,53.324059]],[[121.054864,53.290004],[121.151809,53.274501]],[[120.175951,52.583742],[120.056423,52.600511],[120.032962,52.760657],[120.280182,52.865922],[120.450301,53.008342],[120.652201,53.122831],[120.874255,53.28016],[121.054864,53.290004]],[[120.624967,51.905334],[120.705789,51.979955],[120.705634,52.061035],[120.77917,52.117595],[120.758086,52.237407],[120.626156,52.346806],[120.72398,52.542169],[120.454022,52.639036]],[[120.454022,52.639036],[120.175951,52.583742]],[[120.578614,51.907685],[120.624967,51.905334]],[[120.511899,51.876189],[120.578614,51.907685]],[[120.502081,51.877248],[120.511899,51.876189]],[[120.153782,51.663979],[120.502081,51.877248]],[[120.122363,51.667157],[120.153782,51.663979]],[[119.802434,51.213283],[119.819642,51.274727],[119.915657,51.330744],[120.122363,51.667157]],[[119.772306,51.218477],[119.802434,51.213283]],[[119.19844,50.4131],[119.243656,50.445501],[119.293576,50.599238],[119.496664,50.737059],[119.517955,50.904801],[119.683216,51.01606],[119.748277,51.083395],[119.772306,51.218477]],[[119.167692,50.414082],[119.19844,50.4131]],[[119.187949,50.354705],[119.167692,50.414082]],[[119.250788,50.34251],[119.213581,50.356566]],[[119.213581,50.356566],[119.187949,50.354705]],[[118.990442,49.979328],[119.208516,50.015139],[119.31621,50.092654],[119.3529,50.345507],[119.31435,50.351708]],[[119.31435,50.351708],[119.250788,50.34251]],[[118.923779,49.991627],[118.990442,49.979328]],[[118.712939,49.949459],[118.923779,49.991627]],[[118.670565,49.962068],[118.712939,49.949459]],[[118.241702,49.729162],[118.477037,49.835977],[118.521272,49.894062],[118.670565,49.962068]],[[116.684278,49.823265],[117.057588,49.672886],[117.252925,49.62245],[117.47286,49.614285],[117.768863,49.510984]],[[118.229403,49.729214],[118.241702,49.729162]],[[117.836869,49.50902],[118.208216,49.695417],[118.229403,49.729214]],[[117.795011,49.519149],[117.836869,49.50902]],[[117.768863,49.510984],[117.795011,49.519149]]]},"properties":{"FEATURECLA":"International boundary (verify)","NAME":null,"COMMENT":null,"ADM0_USA":1,"ADM0_LEFT":"Russia","ADM0_RIGHT":"China","ADM0_A3_L":"RUS","ADM0_A3_R":"CHN","SOV_A3_L":"RUS","SOV_A3_R":"CH1","TYPE":"Land","LABELRANK":2,"SCALERANK":1,"MIN_ZOOM":0,"MIN_LABEL":5.7,"NOTE":null,"ADM0_ABR_L":"Rus.","ADM0_ABR_R":"China","FCLASS_ISO":null,"FCLASS_US":null,"FCLASS_FR":null,"FCLASS_RU":null,"FCLASS_ES":null,"FCLASS_CN":null,"FCLASS_TW":null,"FCLASS_IN":null,"FCLASS_NP":null,"FCLASS_PK":null,"FCLASS_DE":null,"FCLASS_GB":null,"FCLASS_BR":null,"FCLASS_IL":null,"FCLASS_PS":null,"FCLASS_SA":null,"FCLASS_EG":null,"FCLASS_MA":null,"FCLASS_PT":null,"FCLASS_AR":null,"FCLASS_JP":null,"FCLASS_KO":null,"FCLASS_VN":null,"FCLASS_TR":null,"FCLASS_ID":null,"FCLASS_PL":null,"FCLASS_GR":null,"FCLASS_IT":null,"FCLASS_NL":null,"FCLASS_SE":null,"FCLASS_BD":null,"FCLASS_UA":null,"ne_id":1746707251,"BRK_A3":null,"FCLASS_OSM":null,"FCLASS_TLC":null}}
]}